1 08820U 76039A   03096.86368491  .00000002  00000-0  10000-3 0  9307
2 08820 109.8087 157.1867 0044684 316.8314  42.8942  6.38664435372501
